CCSDS_OMM_VERS = 2.0
CREATION_DATE  = 
ORIGINATOR     = 

OBJECT_NAME    = SHENZHOU-22
OBJECT_ID      = 2025-272A
CENTER_NAME    = EARTH
REF_FRAME      = TEME
TIME_SYSTEM    = UTC
MEAN_ELEMENT_THEORY = SGP/SGP4

EPOCH          = 2025-12-06T21:14:35.052288
MEAN_MOTION    = 15.58811356
ECCENTRICITY   = .00094534
INCLINATION    = 41.4683
RA_OF_ASC_NODE = 52.2413
ARG_OF_PERICENTER = 344.5349
MEAN_ANOMALY   = 15.5199

EPHEMERIS_TYPE = 0
CLASSIFICATION_TYPE = U
NORAD_CAT_ID   = 66645
ELEMENT_SET_NO = 999
REV_AT_EPOCH   = 26300
BSTAR          = .35334049E-3
MEAN_MOTION_DOT = .27906E-3
MEAN_MOTION_DDOT = 0

CCSDS_OMM_VERS = 2.0
CREATION_DATE  = 
ORIGINATOR     = 

OBJECT_NAME    = CZ-2F R/B
OBJECT_ID      = 2025-272B
CENTER_NAME    = EARTH
REF_FRAME      = TEME
TIME_SYSTEM    = UTC
MEAN_ELEMENT_THEORY = SGP/SGP4

EPOCH          = 2025-12-07T10:05:31.042752
MEAN_MOTION    = 16.43477868
ECCENTRICITY   = .0025537
INCLINATION    = 41.4502
RA_OF_ASC_NODE = 42.8201
ARG_OF_PERICENTER = 230.1755
MEAN_ANOMALY   = 129.6865

EPHEMERIS_TYPE = 0
CLASSIFICATION_TYPE = U
NORAD_CAT_ID   = 66646
ELEMENT_SET_NO = 999
REV_AT_EPOCH   = 198
BSTAR          = .21216E-3
MEAN_MOTION_DOT = .9016961E-1
MEAN_MOTION_DDOT = .79731E-5

CCSDS_OMM_VERS = 2.0
CREATION_DATE  = 
ORIGINATOR     = 

OBJECT_NAME    = SOYUZ-MS 28
OBJECT_ID      = 2025-275A
CENTER_NAME    = EARTH
REF_FRAME      = TEME
TIME_SYSTEM    = UTC
MEAN_ELEMENT_THEORY = SGP/SGP4

EPOCH          = 2025-12-06T20:46:13.238400
MEAN_MOTION    = 15.49374779
ECCENTRICITY   = .00034973
INCLINATION    = 51.6304
RA_OF_ASC_NODE = 171.5636
ARG_OF_PERICENTER = 213.1314
MEAN_ANOMALY   = 146.9456

EPHEMERIS_TYPE = 0
CLASSIFICATION_TYPE = U
NORAD_CAT_ID   = 66664
ELEMENT_SET_NO = 999
REV_AT_EPOCH   = 128
BSTAR          = .25393652E-3
MEAN_MOTION_DOT = .1375E-3
MEAN_MOTION_DDOT = 0

CCSDS_OMM_VERS = 2.0
CREATION_DATE  = 
ORIGINATOR     = 

OBJECT_NAME    = 1998-067XS
OBJECT_ID      = 1998-067XS
CENTER_NAME    = EARTH
REF_FRAME      = TEME
TIME_SYSTEM    = UTC
MEAN_ELEMENT_THEORY = SGP/SGP4

EPOCH          = 2025-12-06T22:16:16.867200
MEAN_MOTION    = 15.50144102
ECCENTRICITY   = .00041468
INCLINATION    = 51.6299
RA_OF_ASC_NODE = 171.2315
ARG_OF_PERICENTER = 177.6061
MEAN_ANOMALY   = 182.4948

EPHEMERIS_TYPE = 0
CLASSIFICATION_TYPE = U
NORAD_CAT_ID   = 66906
ELEMENT_SET_NO = 999
REV_AT_EPOCH   = 71
BSTAR          = .61899955E-3
MEAN_MOTION_DOT = .35216E-3
MEAN_MOTION_DDOT = 0

CCSDS_OMM_VERS = 2.0
CREATION_DATE  = 
ORIGINATOR     = 

OBJECT_NAME    = 1998-067XT
OBJECT_ID      = 1998-067XT
CENTER_NAME    = EARTH
REF_FRAME      = TEME
TIME_SYSTEM    = UTC
MEAN_ELEMENT_THEORY = SGP/SGP4

EPOCH          = 2025-12-06T22:15:35.290656
MEAN_MOTION    = 15.50498848
ECCENTRICITY   = .00052114
INCLINATION    = 51.6299
RA_OF_ASC_NODE = 171.2284
ARG_OF_PERICENTER = 194.7186
MEAN_ANOMALY   = 165.3652

EPHEMERIS_TYPE = 0
CLASSIFICATION_TYPE = U
NORAD_CAT_ID   = 66907
ELEMENT_SET_NO = 999
REV_AT_EPOCH   = 71
BSTAR          = .1226899E-2
MEAN_MOTION_DOT = .71486E-3
MEAN_MOTION_DDOT = 0

CCSDS_OMM_VERS = 2.0
CREATION_DATE  = 
ORIGINATOR     = 

OBJECT_NAME    = 1998-067XU
OBJECT_ID      = 1998-067XU
CENTER_NAME    = EARTH
REF_FRAME      = TEME
TIME_SYSTEM    = UTC
MEAN_ELEMENT_THEORY = SGP/SGP4

EPOCH          = 2025-12-06T22:15:23.816736
MEAN_MOTION    = 15.50551079
ECCENTRICITY   = .00054036
INCLINATION    = 51.6296
RA_OF_ASC_NODE = 171.2272
ARG_OF_PERICENTER = 194.2976
MEAN_ANOMALY   = 165.7861

EPHEMERIS_TYPE = 0
CLASSIFICATION_TYPE = U
NORAD_CAT_ID   = 66908
ELEMENT_SET_NO = 999
REV_AT_EPOCH   = 71
BSTAR          = .11470427E-2
MEAN_MOTION_DOT = .66891E-3
MEAN_MOTION_DDOT = 0

CCSDS_OMM_VERS = 2.0
CREATION_DATE  = 
ORIGINATOR     = 

OBJECT_NAME    = 1998-067XV
OBJECT_ID      = 1998-067XV
CENTER_NAME    = EARTH
REF_FRAME      = TEME
TIME_SYSTEM    = UTC
MEAN_ELEMENT_THEORY = SGP/SGP4

EPOCH          = 2025-12-06T22:15:20.702880
MEAN_MOTION    = 15.50597561
ECCENTRICITY   = .000527
INCLINATION    = 51.6296
RA_OF_ASC_NODE = 171.2269
ARG_OF_PERICENTER = 195.2030
MEAN_ANOMALY   = 164.8802

EPHEMERIS_TYPE = 0
CLASSIFICATION_TYPE = U
NORAD_CAT_ID   = 66909
ELEMENT_SET_NO = 999
REV_AT_EPOCH   = 71
BSTAR          = .13781016E-2
MEAN_MOTION_DOT = .80732E-3
MEAN_MOTION_DDOT = 0

CCSDS_OMM_VERS = 2.0
CREATION_DATE  = 
ORIGINATOR     = 

OBJECT_NAME    = 1998-067XW
OBJECT_ID      = 1998-067XW
CENTER_NAME    = EARTH
REF_FRAME      = TEME
TIME_SYSTEM    = UTC
MEAN_ELEMENT_THEORY = SGP/SGP4

EPOCH          = 2025-12-06T22:14:11.406624
MEAN_MOTION    = 15.50834076
ECCENTRICITY   = .00061612
INCLINATION    = 51.6295
RA_OF_ASC_NODE = 171.2216
ARG_OF_PERICENTER = 180.8315
MEAN_ANOMALY   = 179.2665

EPHEMERIS_TYPE = 0
CLASSIFICATION_TYPE = U
NORAD_CAT_ID   = 66910
ELEMENT_SET_NO = 999
REV_AT_EPOCH   = 71
BSTAR          = .1191381E-2
MEAN_MOTION_DOT = .70242E-3
MEAN_MOTION_DDOT = 0

CCSDS_OMM_VERS = 2.0
CREATION_DATE  = 
ORIGINATOR     = 

OBJECT_NAME    = 1998-067XX
OBJECT_ID      = 1998-067XX
CENTER_NAME    = EARTH
REF_FRAME      = TEME
TIME_SYSTEM    = UTC
MEAN_ELEMENT_THEORY = SGP/SGP4

EPOCH          = 2025-12-06T22:14:02.509152
MEAN_MOTION    = 15.50921454
ECCENTRICITY   = .00060774
INCLINATION    = 51.6294
RA_OF_ASC_NODE = 171.2209
ARG_OF_PERICENTER = 181.4841
MEAN_ANOMALY   = 178.6131

EPHEMERIS_TYPE = 0
CLASSIFICATION_TYPE = U
NORAD_CAT_ID   = 66911
ELEMENT_SET_NO = 999
REV_AT_EPOCH   = 70
BSTAR          = .13962255E-2
MEAN_MOTION_DOT = .82787E-3
MEAN_MOTION_DDOT = 0

CCSDS_OMM_VERS = 2.0
CREATION_DATE  = 
ORIGINATOR     = 

OBJECT_NAME    = 1998-067XY
OBJECT_ID      = 1998-067XY
CENTER_NAME    = EARTH
REF_FRAME      = TEME
TIME_SYSTEM    = UTC
MEAN_ELEMENT_THEORY = SGP/SGP4

EPOCH          = 2025-12-06T19:10:11.930016
MEAN_MOTION    = 15.50363521
ECCENTRICITY   = .00052356
INCLINATION    = 51.6299
RA_OF_ASC_NODE = 171.8684
ARG_OF_PERICENTER = 194.0341
MEAN_ANOMALY   = 166.0503

EPHEMERIS_TYPE = 0
CLASSIFICATION_TYPE = U
NORAD_CAT_ID   = 66912
ELEMENT_SET_NO = 999
REV_AT_EPOCH   = 68
BSTAR          = .11553511E-2
MEAN_MOTION_DOT = .66928E-3
MEAN_MOTION_DDOT = 0

